[{"OBJECT_NAME":"BUGSAT-1 (TITA)","OBJECT_ID":"2014-033E","EPOCH":"2026-03-09T23:14:58.322976","MEAN_MOTION":15.14502987,"ECCENTRICITY":0.00292569,"INCLINATION":98.0428,"RA_OF_ASC_NODE":155.8085,"ARG_OF_PERICENTER":157.4521,"MEAN_ANOMALY":202.8002,"EPHEMERIS_TYPE":0,"CLASSIFICATION_TYPE":"U","NORAD_CAT_ID":40014,"ELEMENT_SET_NO":999,"REV_AT_EPOCH":64081,"BSTAR":0.00030961592,"MEAN_MOTION_DOT":5.686e-5,"MEAN_MOTION_DDOT":0},{"OBJECT_NAME":"STARLINK-3507","OBJECT_ID":"2022-016AR","EPOCH":"2026-03-09T23:17:30.433632","MEAN_MOTION":15.08830909,"ECCENTRICITY":0.00012177,"INCLINATION":53.2179,"RA_OF_ASC_NODE":307.8725,"ARG_OF_PERICENTER":98.1062,"MEAN_ANOMALY":262.0068,"EPHEMERIS_TYPE":0,"CLASSIFICATION_TYPE":"U","NORAD_CAT_ID":51753,"ELEMENT_SET_NO":999,"REV_AT_EPOCH":22374,"BSTAR":6.0979438e-5,"MEAN_MOTION_DOT":6.83e-6,"MEAN_MOTION_DDOT":0}]
